MEAN_MOTION;ECCENTRICITY;INCLINATION;RA_OF_ASC_NODE;ARG_OF_PERICENTER;MEAN_ANOMALY;BSTAR;MEAN_MOTION_DOT;MEAN_MOTION_DDOT;TYPE
14.32806123;0.0002569;44.9953;143.5309;235.8834;124.1768;7.9194E-5;7.7E-7;0;Orbcomm
14.32806187;0.0002574;44.9953;142.8753;236.8893;123.1706;7.894E-5;7.7E-7;0;Orbcomm
14.32806623;0.0002623;44.9953;138.6132;240.3095;119.749;7.9228E-5;7.7E-7;0;Orbcomm
14.32806679;0.000263;44.9953;137.9575;240.9825;119.0758;7.8665E-5;7.6E-7;0;Orbcomm
14.32807017;0.0002676;44.9953;133.6954;244.4363;115.6207;7.8263E-5;7.5E-7;0;Orbcomm
14.32807017;0.0002676;44.9953;133.6954;244.4363;115.6207;7.8263E-5;7.5E-7;0;Orbcomm
14.32807281;0.0002722;44.9952;129.4333;247.9034;112.1523;7.6921E-5;7.1E-7;0;Orbcomm
14.32807529;0.0002756;44.9952;124.8434;251.7697;108.2849;7.4837E-5;6.5E-7;0;Orbcomm
14.32807535;0.0002758;44.9952;124.5156;252.0114;108.0432;7.418E-5;6.4E-7;0;Orbcomm
14.32807811;0.0002786;44.9953;119.9258;255.7789;104.2748;7.2666E-5;5.9E-7;0;Orbcomm
14.32808151;0.0002808;44.9953;115.3359;259.475;100.578;7.1506E-5;5.6E-7;0;Orbcomm
14.32808398;0.0002822;44.9953;112.0574;262.0144;98.0381;6.7185E-5;4.4E-7;0;Orbcomm
14.32808686;0.0002833;44.9954;108.779;264.8042;95.2481;6.485E-5;3.8E-7;0;Orbcomm
14.3280895;0.0002834;44.9953;105.8284;267.025;93.0272;6.3378E-5;3.4E-7;0;Orbcomm
14.32809434;0.0002841;44.9954;100.9106;270.8528;89.1992;6.3744E-5;3.5E-7;0;Orbcomm
14.32810048;0.0002846;44.9955;94.6813;275.8765;84.1757;6.8346E-5;4.8E-7;0;Orbcomm
14.32810419;0.0002834;44.9955;91.7307;278.3014;81.7511;7.6687E-5;7.0E-7;0;Orbcomm
14.32810596;0.0002837;44.9955;89.7635;279.786;80.2666;7.9437E-5;7.8E-7;0;Orbcomm
14.3281073;0.0002829;44.9956;88.4521;280.961;79.0918;8.155E-5;8.4E-7;0;Orbcomm
14.32810917;0.0002823;44.9956;87.1407;281.8879;78.165;8.7005E-5;9.9E-7;0;Orbcomm
14.32811118;0.0002819;44.9956;84.8456;283.8377;76.2155;8.9302E-5;1.05E-6;0;Orbcomm
14.32811322;0.0002802;44.9957;82.5508;285.6388;74.4148;8.9807E-5;1.07E-6;0;Orbcomm
14.3281153;0.0002797;44.9957;80.2557;287.3618;72.6922;9.0468E-5;1.08E-6;0;Orbcomm
14.32811905;0.0002769;44.9959;75.9937;290.8678;69.1872;8.8431E-5;1.03E-6;0;Orbcomm
14.32811913;0.0002766;44.9959;75.6659;291.1468;68.9083;8.7182E-5;9.9E-7;0;Orbcomm
14.32812284;0.0002724;44.996;70.7483;295.1934;64.863;7.8668E-5;7.6E-7;0;Orbcomm
14.32812268;0.0002714;44.9961;69.7648;295.8423;64.2143;7.0767E-5;5.4E-7;0;Orbcomm
14.32812485;0.0002685;44.9962;66.1585;298.8942;61.1635;6.0426E-5;2.6E-7;0;Orbcomm
14.32812658;0.0002659;44.9963;63.8638;300.7783;59.2801;5.7002E-5;1.6E-7;0;Orbcomm
14.32812814;0.000264;44.9964;61.5688;302.5404;57.5187;5.3859E-5;8.0E-8;0;Orbcomm
14.32813219;0.0002594;44.9965;56.9791;306.3195;53.7411;5.6555E-5;1.5E-7;0;Orbcomm
14.32813749;0.0002531;44.9966;52.0615;310.5573;49.5052;6.7567E-5;4.5E-7;0;Orbcomm
14.32813918;0.0002507;44.9967;50.7502;311.8342;48.229;7.2788E-5;6.0E-7;0;Orbcomm
14.32813955;0.0002501;44.9967;50.4224;312.1591;47.9042;7.3653E-5;6.2E-7;0;Orbcomm
14.32814237;0.0002464;44.9967;47.4717;314.7161;45.3484;7.785E-5;7.4E-7;0;Orbcomm
14.32814445;0.0002437;44.9967;45.5048;316.6992;43.3662;8.1816E-5;8.5E-7;0;Orbcomm
14.32814609;0.0002396;44.9968;42.882;319.0346;41.032;8.028E-5;8.0E-7;0;Orbcomm
14.32814887;0.0002334;44.9969;38.2923;323.1764;36.8921;7.5351E-5;6.7E-7;0;Orbcomm
14.32814916;0.0002327;44.9969;37.9644;323.5082;36.5605;7.4928E-5;6.6E-7;0;Orbcomm
14.32815368;0.0002262;44.997;33.3748;327.7375;32.3332;7.4747E-5;6.5E-7;0;Orbcomm
14.32815584;0.0002238;44.9971;32.0635;329.1015;30.9699;8.0051E-5;8.0E-7;0;Orbcomm
14.32816094;0.0002182;44.9971;28.7851;332.0693;28.0036;8.8121E-5;1.02E-6;0;Orbcomm
14.32816748;0.0002093;44.9973;23.8677;337.0235;23.0518;9.222E-5;1.13E-6;0;Orbcomm
14.32816855;0.0002078;44.9973;22.8842;338.1931;21.8826;9.2271E-5;1.13E-6;0;Orbcomm
14.32817469;0.0001991;44.9973;17.9668;343.2868;16.7912;9.4422E-5;1.19E-6;0;Orbcomm
14.32818186;0.0001847;44.9973;10.0989;352.1873;7.8944;9.1461E-5;1.11E-6;0;Orbcomm
14.32818398;0.000176;44.9972;5.5091;356.9738;3.1097;8.3618E-5;9.0E-7;0;Orbcomm
14.32818443;0.0001736;44.9972;4.1978;358.121;1.9629;8.1207E-5;8.3E-7;0;Orbcomm
14.32818701;0.0001653;44.9971;0.5915;2.6481;357.4374;7.834E-5;7.5E-7;0;Orbcomm
14.32818921;0.0001564;44.9971;356.3296;8.3574;351.7297;7.0645E-5;5.4E-7;0;Orbcomm
14.32819298;0.0001465;44.997;351.0841;15.1964;344.8926;6.5419E-5;3.9E-7;0;Orbcomm
14.32819629;0.0001392;44.997;347.15;20.955;339.1353;6.2943E-5;3.3E-7;0;Orbcomm
14.32819768;0.0001369;44.9969;345.5108;23.6073;336.4836;6.2682E-5;3.2E-7;0;Orbcomm
14.32820164;0.0001304;44.9969;341.9045;28.373;331.7187;6.5725E-5;4.0E-7;0;Orbcomm
14.3282033;0.000128;44.9969;340.5932;30.8267;329.2654;6.8907E-5;4.9E-7;0;Orbcomm
14.3282065;0.0001235;44.9969;336.987;36.4152;323.6778;7.024E-5;5.3E-7;0;Orbcomm
14.3282105;0.0001168;44.9967;332.725;44.717;315.377;7.404E-5;6.3E-7;0;Orbcomm
14.32821099;0.0001163;44.9967;332.0694;45.8593;314.2348;7.4884E-5;6.5E-7;0;Orbcomm
14.32821369;0.0001113;44.9966;328.463;53.0337;307.0611;7.5821E-5;6.8E-7;0;Orbcomm
14.32821473;0.0001104;44.9965;327.1517;55.7951;304.3;7.6886E-5;7.1E-7;0;Orbcomm
14.32821584;0.000108;44.9964;324.5289;61.2176;298.8779;7.3517E-5;6.2E-7;0;Orbcomm
14.32821691;0.000107;44.9964;322.8898;64.9646;295.1311;7.2238E-5;5.8E-7;0;Orbcomm
14.32822331;0.0001036;44.9961;314.0378;85.479;274.6175;6.6568E-5;4.3E-7;0;Orbcomm
14.32822735;0.0001043;44.996;309.1201;96.5213;263.5752;6.4173E-5;3.6E-7;0;Orbcomm
14.32822761;0.0001044;44.996;308.7923;96.7677;263.3288;6.4277E-5;3.6E-7;0;Orbcomm
14.32823141;0.000106;44.996;304.2024;106.1482;253.948;6.3663E-5;3.5E-7;0;Orbcomm
14.32823173;0.0001062;44.996;303.8745;106.7607;253.3355;6.395E-5;3.5E-7;0;Orbcomm
14.32823501;0.0001089;44.996;299.6124;115.9585;244.1374;6.4217E-5;3.6E-7;0;Orbcomm
14.32823714;0.0001108;44.996;296.6617;121.8307;238.2647;6.4677E-5;3.7E-7;0;Orbcomm
14.32823858;0.0001143;44.9959;294.6946;126.0851;234.0101;6.5324E-5;3.9E-7;0;Orbcomm
14.32823995;0.0001175;44.9959;291.744;131.7127;228.382;6.2765E-5;3.2E-7;0;Orbcomm
14.32824343;0.0001265;44.9959;285.515;142.5452;217.5482;6.0735E-5;2.7E-7;0;Orbcomm
14.32824516;0.0001313;44.9958;282.2364;147.817;212.2756;5.7976E-5;1.9E-7;0;Orbcomm
14.32824759;0.0001387;44.9958;277.9744;154.6784;205.4131;5.4127E-5;8.0E-8;0;Orbcomm
14.32824781;0.0001396;44.9958;277.6466;155.1096;204.9817;5.3479E-5;7.0E-8;0;Orbcomm
14.32825058;0.0001483;44.9957;273.0567;161.7658;198.3241;4.9343E-5;-5.0E-8;0;Orbcomm
14.32825045;0.0001482;44.9957;272.7289;161.8027;198.2872;4.7685E-5;-9.0E-8;0;Orbcomm
14.32825139;0.000151;44.9957;271.4176;163.766;196.3235;4.7958E-5;-9.0E-8;0;Orbcomm
14.32825419;0.0001612;44.9956;266.8276;170.0288;190.059;4.5545E-5;-1.5E-7;0;Orbcomm
14.32825442;0.0001619;44.9956;266.4998;170.4268;189.6609;4.5401E-5;-1.6E-7;0;Orbcomm
14.32825819;0.0001721;44.9956;261.9098;176.2376;183.8483;5.0943E-5;0;0;Orbcomm
14.32825819;0.0001721;44.9956;261.9098;176.2376;183.8483;5.0943E-5;0;0;Orbcomm
14.32826231;0.0001813;44.9956;257.3199;181.9973;178.0866;5.85E-5;2.0E-7;0;Orbcomm
14.32826467;0.0001875;44.9956;254.3692;185.6832;174.3993;6.2135E-5;3.0E-7;0;Orbcomm
14.32826892;0.0001981;44.9957;248.7959;191.6026;168.4775;6.9166E-5;5.0E-7;0;Orbcomm
14.32827122;0.0002073;44.9957;243.5504;196.8123;163.2655;6.2733E-5;3.2E-7;0;Orbcomm
14.32827319;0.0002141;44.9956;239.9441;200.4458;159.6303;5.766E-5;1.8E-7;0;Orbcomm
14.32827404;0.0002154;44.9956;238.9606;201.2905;158.7852;5.7888E-5;1.9E-7;0;Orbcomm
14.3282777;0.0002224;44.9956;235.3544;204.8925;155.1815;5.9177E-5;2.2E-7;0;Orbcomm
14.3282783;0.0002235;44.9955;234.3709;205.7009;154.3726;5.6805E-5;1.6E-7;0;Orbcomm
14.32828302;0.0002327;44.9954;229.4533;210.3495;149.7217;5.6584E-5;1.5E-7;0;Orbcomm
14.32828844;0.0002403;44.9953;224.8635;214.5416;145.5274;6.4858E-5;3.8E-7;0;Orbcomm
14.32829157;0.0002466;44.9953;221.585;217.5044;142.5631;6.6821E-5;4.3E-7;0;Orbcomm
14.32829285;0.0002482;44.9952;220.2737;218.6786;141.3882;6.8535E-5;4.8E-7;0;Orbcomm
14.32829731;0.0002553;44.9951;216.0116;222.483;137.5818;7.5546E-5;6.7E-7;0;Orbcomm
14.32829746;0.0002557;44.9951;215.6838;222.7986;137.2662;7.4862E-5;6.6E-7;0;Orbcomm
14.3283013;0.0002626;44.995;211.0939;226.72;133.3428;7.8281E-5;7.5E-7;0;Orbcomm
14.32830564;0.0002688;44.9949;206.504;230.6193;129.4415;8.1864E-5;8.5E-7;0;Orbcomm
14.32830741;0.000272;44.9949;204.2089;232.5678;127.4921;8.0803E-5;8.2E-7;0;Orbcomm
14.32830995;0.0002745;44.9948;201.9141;234.5135;125.5455;8.0365E-5;8.1E-7;0;Orbcomm
14.32831214;0.0002782;44.9948;199.2913;236.7368;123.3211;7.6953E-5;7.1E-7;0;Orbcomm
14.32831421;0.0002797;44.9948;197.6521;238.1082;121.9492;7.7201E-5;7.2E-7;0;Orbcomm
14.32831479;0.0002804;44.9948;196.9964;238.7208;121.3364;7.5635E-5;6.8E-7;0;Orbcomm
14.32831752;0.0002846;44.9948;193.39;241.6096;118.4463;6.8243E-5;4.7E-7;0;Orbcomm
14.32831833;0.0002854;44.9947;192.4066;242.5613;117.4943;6.6425E-5;4.2E-7;0;Orbcomm
14.32832111;0.0002886;44.9947;188.4724;245.6478;114.4067;6.0223E-5;2.5E-7;0;Orbcomm
14.32832136;0.0002895;44.9947;187.8167;246.3445;113.7098;5.8062E-5;1.9E-7;0;Orbcomm
14.32832352;0.0002932;44.9946;183.5547;249.8195;110.2336;5.1036E-5;0;0;Orbcomm
14.32832607;0.0002971;44.9945;178.6369;253.7902;106.2617;4.7209E-5;-1.1E-7;0;Orbcomm
14.32832877;0.0002996;44.9944;174.0469;257.218;102.8332;5.036E-5;-2.0E-8;0;Orbcomm
14.32833002;0.0003012;44.9943;171.7518;259.1248;100.9259;5.2605E-5;4.0E-8;0;Orbcomm
14.32833184;0.0003017;44.9943;169.4569;260.9437;99.1068;5.6513E-5;1.5E-7;0;Orbcomm
14.32833342;0.0003031;44.9942;166.834;263.1455;96.9046;5.8366E-5;2.0E-7;0;Orbcomm
14.32833521;0.0003031;44.9942;164.8669;264.6206;95.4295;6.1687E-5;2.9E-7;0;Orbcomm
14.32833923;0.000304;44.9942;160.2768;268.1961;91.8537;6.4693E-5;3.8E-7;0;Orbcomm
14.32834288;0.0003046;44.9942;156.3425;271.5366;88.5131;6.5213E-5;3.9E-7;0;Orbcomm
14.328347;0.0003044;44.9943;152.4082;274.4611;85.5887;6.5731E-5;4.0E-7;0;Orbcomm
14.3283498;0.0003041;44.9944;149.1297;277.186;82.864;6.351E-5;3.4E-7;0;Orbcomm
14.32835208;0.0003026;44.9945;146.5069;279.2483;80.8021;6.2829E-5;3.2E-7;0;Orbcomm
